<?xml version="1.0" encoding="UTF-8"?>
<ndm xmlns:xsi="http://www.w3.org/2001/XMLSchema-instance" xsi:noNamespaceSchemaLocation="https://sanaregistry.org/r/ndmxml_unqualified/ndmxml-2.0.0-master-2.0.xsd">
<omm id="CCSDS_OMM_VERS" version="2.0">
<header><CREATION_DATE/><ORIGINATOR/></header><body><segment><metadata><OBJECT_NAME>ORBCOMM FM33</OBJECT_NAME><OBJECT_ID>1999-065D</OBJECT_ID><CENTER_NAME>EARTH</CENTER_NAME><REF_FRAME>TEME</REF_FRAME><TIME_SYSTEM>UTC</TIME_SYSTEM><MEAN_ELEMENT_THEORY>SGP4</MEAN_ELEMENT_THEORY></metadata><data><meanElements><EPOCH>2025-09-29T21:57:21.598848</EPOCH><MEAN_MOTION>14.40228150</MEAN_MOTION><ECCENTRICITY>.0008834</ECCENTRICITY><INCLINATION>45.0271</INCLINATION><RA_OF_ASC_NODE>220.9714</RA_OF_ASC_NODE><ARG_OF_PERICENTER>243.4821</ARG_OF_PERICENTER><MEAN_ANOMALY>116.5123</MEAN_ANOMALY></meanElements><tleParameters><EPHEMERIS_TYPE>0</EPHEMERIS_TYPE><CLASSIFICATION_TYPE>U</CLASSIFICATION_TYPE><NORAD_CAT_ID>25983</NORAD_CAT_ID><ELEMENT_SET_NO>999</ELEMENT_SET_NO><REV_AT_EPOCH>35116</REV_AT_EPOCH><BSTAR>.88082E-3</BSTAR><MEAN_MOTION_DOT>.2672E-4</MEAN_MOTION_DOT><MEAN_MOTION_DDOT>0</MEAN_MOTION_DDOT></tleParameters></data></segment></body></omm>
<omm id="CCSDS_OMM_VERS" version="2.0">
<header><CREATION_DATE/><ORIGINATOR/></header><body><segment><metadata><OBJECT_NAME>ORBCOMM FM36</OBJECT_NAME><OBJECT_ID>1999-065E</OBJECT_ID><CENTER_NAME>EARTH</CENTER_NAME><REF_FRAME>TEME</REF_FRAME><TIME_SYSTEM>UTC</TIME_SYSTEM><MEAN_ELEMENT_THEORY>SGP4</MEAN_ELEMENT_THEORY></metadata><data><meanElements><EPOCH>2025-09-30T18:42:36.078336</EPOCH><MEAN_MOTION>14.38395653</MEAN_MOTION><ECCENTRICITY>.0001624</ECCENTRICITY><INCLINATION>45.0391</INCLINATION><RA_OF_ASC_NODE>310.4035</RA_OF_ASC_NODE><ARG_OF_PERICENTER>173.4347</ARG_OF_PERICENTER><MEAN_ANOMALY>186.6524</MEAN_ANOMALY></meanElements><tleParameters><EPHEMERIS_TYPE>0</EPHEMERIS_TYPE><CLASSIFICATION_TYPE>U</CLASSIFICATION_TYPE><NORAD_CAT_ID>25984</NORAD_CAT_ID><ELEMENT_SET_NO>999</ELEMENT_SET_NO><REV_AT_EPOCH>34962</REV_AT_EPOCH><BSTAR>.10264E-2</BSTAR><MEAN_MOTION_DOT>.3017E-4</MEAN_MOTION_DOT><MEAN_MOTION_DDOT>0</MEAN_MOTION_DDOT></tleParameters></data></segment></body></omm>
<omm id="CCSDS_OMM_VERS" version="2.0">
<header><CREATION_DATE/><ORIGINATOR/></header><body><segment><metadata><OBJECT_NAME>ORBCOMM FM35</OBJECT_NAME><OBJECT_ID>1999-065F</OBJECT_ID><CENTER_NAME>EARTH</CENTER_NAME><REF_FRAME>TEME</REF_FRAME><TIME_SYSTEM>UTC</TIME_SYSTEM><MEAN_ELEMENT_THEORY>SGP4</MEAN_ELEMENT_THEORY></metadata><data><meanElements><EPOCH>2025-09-30T20:03:32.446080</EPOCH><MEAN_MOTION>14.37334178</MEAN_MOTION><ECCENTRICITY>.0005536</ECCENTRICITY><INCLINATION>45.0397</INCLINATION><RA_OF_ASC_NODE>316.0178</RA_OF_ASC_NODE><ARG_OF_PERICENTER>224.7490</ARG_OF_PERICENTER><MEAN_ANOMALY>135.2912</MEAN_ANOMALY></meanElements><tleParameters><EPHEMERIS_TYPE>0</EPHEMERIS_TYPE><CLASSIFICATION_TYPE>U</CLASSIFICATION_TYPE><NORAD_CAT_ID>25985</NORAD_CAT_ID><ELEMENT_SET_NO>999</ELEMENT_SET_NO><REV_AT_EPOCH>34998</REV_AT_EPOCH><BSTAR>.81131E-3</BSTAR><MEAN_MOTION_DOT>.2302E-4</MEAN_MOTION_DOT><MEAN_MOTION_DDOT>0</MEAN_MOTION_DDOT></tleParameters></data></segment></body></omm>
<omm id="CCSDS_OMM_VERS" version="2.0">
<header><CREATION_DATE/><ORIGINATOR/></header><body><segment><metadata><OBJECT_NAME>ORBCOMM FM34</OBJECT_NAME><OBJECT_ID>1999-065G</OBJECT_ID><CENTER_NAME>EARTH</CENTER_NAME><REF_FRAME>TEME</REF_FRAME><TIME_SYSTEM>UTC</TIME_SYSTEM><MEAN_ELEMENT_THEORY>SGP4</MEAN_ELEMENT_THEORY></metadata><data><meanElements><EPOCH>2025-09-30T10:52:57.256608</EPOCH><MEAN_MOTION>14.37326361</MEAN_MOTION><ECCENTRICITY>.00040993</ECCENTRICITY><INCLINATION>45.0392</INCLINATION><RA_OF_ASC_NODE>318.2823</RA_OF_ASC_NODE><ARG_OF_PERICENTER>187.3513</ARG_OF_PERICENTER><MEAN_ANOMALY>172.7276</MEAN_ANOMALY></meanElements><tleParameters><EPHEMERIS_TYPE>0</EPHEMERIS_TYPE><CLASSIFICATION_TYPE>U</CLASSIFICATION_TYPE><NORAD_CAT_ID>25986</NORAD_CAT_ID><ELEMENT_SET_NO>999</ELEMENT_SET_NO><REV_AT_EPOCH>35004</REV_AT_EPOCH><BSTAR>.83315975E-3</BSTAR><MEAN_MOTION_DOT>.2368E-4</MEAN_MOTION_DOT><MEAN_MOTION_DDOT>0</MEAN_MOTION_DDOT></tleParameters></data></segment></body></omm>
<omm id="CCSDS_OMM_VERS" version="2.0">
<header><CREATION_DATE/><ORIGINATOR/></header><body><segment><metadata><OBJECT_NAME>ORBCOMM FM38</OBJECT_NAME><OBJECT_ID>2008-031A</OBJECT_ID><CENTER_NAME>EARTH</CENTER_NAME><REF_FRAME>TEME</REF_FRAME><TIME_SYSTEM>UTC</TIME_SYSTEM><MEAN_ELEMENT_THEORY>SGP4</MEAN_ELEMENT_THEORY></metadata><data><meanElements><EPOCH>2025-09-30T16:41:52.604736</EPOCH><MEAN_MOTION>14.81762295</MEAN_MOTION><ECCENTRICITY>.0004642</ECCENTRICITY><INCLINATION>48.4386</INCLINATION><RA_OF_ASC_NODE>172.2900</RA_OF_ASC_NODE><ARG_OF_PERICENTER>138.1947</ARG_OF_PERICENTER><MEAN_ANOMALY>221.9324</MEAN_ANOMALY></meanElements><tleParameters><EPHEMERIS_TYPE>0</EPHEMERIS_TYPE><CLASSIFICATION_TYPE>U</CLASSIFICATION_TYPE><NORAD_CAT_ID>33060</NORAD_CAT_ID><ELEMENT_SET_NO>999</ELEMENT_SET_NO><REV_AT_EPOCH>93039</REV_AT_EPOCH><BSTAR>.70018E-3</BSTAR><MEAN_MOTION_DOT>.5374E-4</MEAN_MOTION_DOT><MEAN_MOTION_DDOT>0</MEAN_MOTION_DDOT></tleParameters></data></segment></body></omm>
<omm id="CCSDS_OMM_VERS" version="2.0">
<header><CREATION_DATE/><ORIGINATOR/></header><body><segment><metadata><OBJECT_NAME>ORBCOMM FM41</OBJECT_NAME><OBJECT_ID>2008-031B</OBJECT_ID><CENTER_NAME>EARTH</CENTER_NAME><REF_FRAME>TEME</REF_FRAME><TIME_SYSTEM>UTC</TIME_SYSTEM><MEAN_ELEMENT_THEORY>SGP4</MEAN_ELEMENT_THEORY></metadata><data><meanElements><EPOCH>2025-09-30T19:18:34.289856</EPOCH><MEAN_MOTION>14.81334752</MEAN_MOTION><ECCENTRICITY>.0003817</ECCENTRICITY><INCLINATION>48.4420</INCLINATION><RA_OF_ASC_NODE>179.9188</RA_OF_ASC_NODE><ARG_OF_PERICENTER>121.2233</ARG_OF_PERICENTER><MEAN_ANOMALY>281.8507</MEAN_ANOMALY></meanElements><tleParameters><EPHEMERIS_TYPE>0</EPHEMERIS_TYPE><CLASSIFICATION_TYPE>U</CLASSIFICATION_TYPE><NORAD_CAT_ID>33061</NORAD_CAT_ID><ELEMENT_SET_NO>999</ELEMENT_SET_NO><REV_AT_EPOCH>92989</REV_AT_EPOCH><BSTAR>.66188E-3</BSTAR><MEAN_MOTION_DOT>.5015E-4</MEAN_MOTION_DOT><MEAN_MOTION_DDOT>0</MEAN_MOTION_DDOT></tleParameters></data></segment></body></omm>
<omm id="CCSDS_OMM_VERS" version="2.0">
<header><CREATION_DATE/><ORIGINATOR/></header><body><segment><metadata><OBJECT_NAME>ORBCOMM FM29</OBJECT_NAME><OBJECT_ID>2008-031C</OBJECT_ID><CENTER_NAME>EARTH</CENTER_NAME><REF_FRAME>TEME</REF_FRAME><TIME_SYSTEM>UTC</TIME_SYSTEM><MEAN_ELEMENT_THEORY>SGP4</MEAN_ELEMENT_THEORY></metadata><data><meanElements><EPOCH>2025-09-29T07:35:59.762688</EPOCH><MEAN_MOTION>14.81437368</MEAN_MOTION><ECCENTRICITY>.00053865</ECCENTRICITY><INCLINATION>48.4373</INCLINATION><RA_OF_ASC_NODE>194.6868</RA_OF_ASC_NODE><ARG_OF_PERICENTER>112.5900</ARG_OF_PERICENTER><MEAN_ANOMALY>34.3401</MEAN_ANOMALY></meanElements><tleParameters><EPHEMERIS_TYPE>0</EPHEMERIS_TYPE><CLASSIFICATION_TYPE>U</CLASSIFICATION_TYPE><NORAD_CAT_ID>33062</NORAD_CAT_ID><ELEMENT_SET_NO>999</ELEMENT_SET_NO><REV_AT_EPOCH>92958</REV_AT_EPOCH><BSTAR>.59845333E-3</BSTAR><MEAN_MOTION_DOT>.4524E-4</MEAN_MOTION_DOT><MEAN_MOTION_DDOT>0</MEAN_MOTION_DDOT></tleParameters></data></segment></body></omm>
<omm id="CCSDS_OMM_VERS" version="2.0">
<header><CREATION_DATE/><ORIGINATOR/></header><body><segment><metadata><OBJECT_NAME>ORBCOMM FM39</OBJECT_NAME><OBJECT_ID>2008-031D</OBJECT_ID><CENTER_NAME>EARTH</CENTER_NAME><REF_FRAME>TEME</REF_FRAME><TIME_SYSTEM>UTC</TIME_SYSTEM><MEAN_ELEMENT_THEORY>SGP4</MEAN_ELEMENT_THEORY></metadata><data><meanElements><EPOCH>2025-09-30T07:13:29.139744</EPOCH><MEAN_MOTION>14.79949671</MEAN_MOTION><ECCENTRICITY>.00062801</ECCENTRICITY><INCLINATION>48.4384</INCLINATION><RA_OF_ASC_NODE>215.4363</RA_OF_ASC_NODE><ARG_OF_PERICENTER>85.9245</ARG_OF_PERICENTER><MEAN_ANOMALY>274.2388</MEAN_ANOMALY></meanElements><tleParameters><EPHEMERIS_TYPE>0</EPHEMERIS_TYPE><CLASSIFICATION_TYPE>U</CLASSIFICATION_TYPE><NORAD_CAT_ID>33063</NORAD_CAT_ID><ELEMENT_SET_NO>999</ELEMENT_SET_NO><REV_AT_EPOCH>92936</REV_AT_EPOCH><BSTAR>.6436061E-3</BSTAR><MEAN_MOTION_DOT>.4707E-4</MEAN_MOTION_DOT><MEAN_MOTION_DDOT>0</MEAN_MOTION_DDOT></tleParameters></data></segment></body></omm>

</ndm>
