ORBCOMM FM33            
1 25983U 99065D   25272.91483332  .00002672  00000+0  88082-3 0  9992
2 25983  45.0271 220.9714 0008834 243.4821 116.5123 14.40228150351162
ORBCOMM FM36            
1 25984U 99065E   25273.77958424  .00003017  00000+0  10264-2 0  9997
2 25984  45.0391 310.4035 0001624 173.4347 186.6524 14.38395653349623
ORBCOMM FM35            
1 25985U 99065F   25273.83579220  .00002302  00000+0  81131-3 0  9996
2 25985  45.0397 316.0178 0005536 224.7490 135.2912 14.37334178349989
ORBCOMM FM34            
1 25986U 99065G   25273.45344047  .00002368  00000+0  83316-3 0  9991
2 25986  45.0392 318.2823 0004099 187.3513 172.7276 14.37326361350042
ORBCOMM FM38            
1 33060U 08031A   25273.69574774  .00005374  00000+0  70018-3 0  9999
2 33060  48.4386 172.2900 0004642 138.1947 221.9324 14.81762295930399
ORBCOMM FM41            
1 33061U 08031B   25273.80456354  .00005015  00000+0  66188-3 0  9991
2 33061  48.4420 179.9188 0003817 121.2233 281.8507 14.81334752929899
ORBCOMM FM29            
1 33062U 08031C   25272.31666392  .00004524  00000+0  59845-3 0  9998
2 33062  48.4373 194.6868 0005386 112.5900  34.3401 14.81437368929580
ORBCOMM FM39            
1 33063U 08031D   25273.30103171  .00004707  00000+0  64361-3 0  9992
2 33063  48.4384 215.4363 0006280  85.9245 274.2388 14.79949671929361
